STARLINK-3179           
1 51141U 22005AP  25281.34963937 -.00001546  00000+0 -79045-4 0  9999
2 51141  53.2168 263.0011 0001362  79.0009 281.1136 15.08853355205742
STARLINK-3369           
1 51142U 22005AQ  25281.24888707  .00044405  00000+0  26014-2 0  9995
2 51142  53.2145 253.1523 0005475  56.9425 303.2093 15.11385397205862
STARLINK-3184           
1 51143U 22005AR  25281.26775926  .00000536  00000+0  51773-4 0  9995
2 51143  53.2167 273.3705 0001390  90.3463 269.7688 15.08839487205584
STARLINK-3185           
1 51144U 22005AS  25281.95044254 -.00000528  00000+0 -15109-4 0  9991
2 51144  53.2157 260.3128 0001504  80.7559 279.3603 15.08839123205834
STARLINK-3354           
1 51146U 22005AU  25281.36163621  .00001346  00000+0  10261-3 0  9998
2 51146  53.2162 262.9583 0001363  90.7981 269.3168 15.08860281205731
STARLINK-3352           
1 51147U 22005AV  25281.36408981  .00039108  00000+0  21829-2 0  9998
2 51147  53.2142 271.8236 0004817  15.0338 345.0799 15.13187987205617
STARLINK-3359           
1 51148U 22005AW  25281.27978625 -.00000073  00000+0  13515-4 0  9991
2 51148  53.2163 273.5197 0001367  91.1911 268.9238 15.08837538205580
STARLINK-3360           
1 51149U 22005AX  25281.96790007  .00000425  00000+0  44797-4 0  9990
2 51149  53.2169 270.0448 0001431  88.6317 271.4839 15.08837958205695
STARLINK-3357           
1 51150U 22005AY  25281.97151831 -.00000129  00000+0  99604-5 0  9999
2 51150  53.2159 259.8256 0001308  89.2035 270.9107 15.08834536205843
STARLINK-3361           
1 51151U 22005AZ  25281.98132012  .00261948  00000+0  10047-2 0  9999
2 51151  53.1947 176.6844 0004967 103.9981 256.1597 15.86167875207016
STARLINK-3364           
1 51152U 22005BA  25281.34867829  .00000864  00000+0  72395-4 0  9995
2 51152  53.2165 272.6223 0001351  83.8765 276.2381 15.08834492205605
USA 324                 
1 51280U 22006A   25269.08110703 -.00000176  00000+0  00000+0 0  9993
2 51280   0.1355  77.7618 0000643 186.4690  99.0875  1.00571648 13481
USA 325                 
1 51281U 22006B   25269.09068118 -.00000125  00000+0  00000+0 0  9991
2 51281   0.2587  88.7147 0000598 152.9752 232.7261  1.00386477 13484
LUDI TANCE 1-01A (L-SA*)
1 51284U 22007A   25281.95427373  .00000105  00000+0  17158-4 0  9990
2 51284  97.8117 287.9938 0001610  90.3771 269.7631 14.88406691201101
ASCENT                  
1 51287U 21118E   25280.43669483 -.00000240  00000+0  00000+0 0  9991
2 51287   3.5282  80.5138 0008584 122.0409 238.3914  1.01227687 13764
CSG-2                   
1 51444U 22008A   25281.94601453  .00000617  00000+0  84068-4 0  9993
2 51444  97.8898 104.2162 0001478  86.9521 273.1862 14.82160493199372
STARLINK-3181           
1 51461U 22010F   25281.88140976  .00001918  00000+0  13858-3 0  9999
2 51461  53.2158 240.6147 0001219  93.6872 266.4260 15.08838399203909
STARLINK-3166           
1 51462U 22010G   25281.87870542 -.00001261  00000+0 -61149-4 0  9998
2 51462  53.2170 240.6408 0001620  93.9245 266.1932 15.08819656203905
STARLINK-3419           
1 51463U 22010H   25281.32204809 -.00000559  00000+0 -17069-4 0  9997
2 51463  53.2161 243.1267 0001353  87.2291 272.8856 15.08831540203519
STARLINK-3189           
1 51464U 22010J   25281.34040982  .00005628  00000+0  37107-3 0  9994
2 51464  53.2166 243.0453 0001328  99.7830 260.3312 15.08872578204325
STARLINK-3401           
1 51465U 22010K   25281.20428887  .00000093  00000+0  23915-4 0  9998
2 51465  53.2166 243.6554 0001320  92.7966 267.3178 15.08831491204303
STARLINK-3178           
1 51467U 22010M   25281.18588423  .00002294  00000+0  16218-3 0  9992
2 51467  53.2163 243.7371 0001799  92.8906 267.2293 15.08842797203492
STARLINK-3174           
1 51468U 22010N   25281.19323456 -.00000576  00000+0 -18115-4 0  9999
2 51468  53.2156 243.6682 0001531  89.4622 270.6546 15.08848993203493
STARLINK-3182           
1 51469U 22010P   25281.87404609  .00000625  00000+0  57347-4 0  9998
2 51469  53.2156 240.6483 0001335  91.0142 269.1003 15.08838248203907
STARLINK-3415           
1 51472U 22010S   25281.91547238  .00002825  00000+0  19557-3 0  9997
2 51472  53.2180 240.3965 0001270  77.5023 282.6111 15.08823858203917
ONEWEB-0410             
1 51622U 22012A   25281.41295318 -.00000001  00000+0 -36571-4 0  9992
2 51622  87.9097  55.9090 0002404  60.5235 299.6136 13.17649259180548
ONEWEB-0411             
1 51623U 22012B   25281.49138554 -.00000752  00000+0 -21916-2 0  9997
2 51623  87.8747  86.4495 0002010 104.5127 255.6223 13.10372659176320
ONEWEB-0415             
1 51624U 22012C   25281.48806551 -.00000642  00000+0 -18746-2 0  9991
2 51624  87.8746  86.4523 0001860  98.1173 262.0165 13.10371871176325
ONEWEB-0416             
1 51625U 22012D   25281.49968540 -.00000582  00000+0 -17029-2 0  9996
2 51625  87.8748  86.4702 0001692  90.8983 269.2338 13.10374778176362
ONEWEB-0422             
1 51626U 22012E   25281.80275050  .00000032  00000+0  49081-4 0  9992
2 51626  87.9090  55.8362 0001312 121.0446 239.0814 13.17649559180702
ONEWEB-0423             
1 51627U 22012F   25281.79597946 -.00000046  00000+0 -15095-3 0  9996
2 51627  87.9096  55.8472 0001558  96.4200 263.7109 13.17645936180599
ONEWEB-0425             
1 51628U 22012G   25281.50965511  .00000020  00000+0  20924-4 0  9991
2 51628  87.8749  86.4375 0001637  77.9286 282.2025 13.10376688176363
ONEWEB-0428             
1 51629U 22012H   25281.48972561 -.00000700  00000+0 -20415-2 0  9992
2 51629  87.8744  86.4624 0001504  97.1954 262.9345 13.10371813176326
ONEWEB-0431             
1 51630U 22012J   25281.91787817  .00000543  00000+0  15203-2 0  9992
2 51630  87.8754  86.3512 0001988 109.7392 250.3950 13.10371355176432
ONEWEB-0434             
1 51631U 22012K   25281.51297653  .00000155  00000+0  40817-3 0  9992
2 51631  87.8752  86.4725 0001660  67.9488 292.1816 13.10377259176362
ONEWEB-0435             
1 51632U 22012L   25281.44492803  .00000628  00000+0  17630-2 0  9990
2 51632  87.8750  86.4774 0001331 101.4057 258.7220 13.10375294176348
ONEWEB-0436             
1 51633U 22012M   25281.40789136  .00000010  00000+0 -78249-5 0  9997
2 51633  87.9092  55.9038 0001634 104.8684 255.2629 13.17648446180521
ONEWEB-0438             
1 51634U 22012N   25281.88645537 -.00000427  00000+0 -12586-2 0  9998
2 51634  87.8749  86.3899 0001599  84.2545 275.8765 13.10375993176431
ONEWEB-0439             
1 51635U 22012P   25281.43163574 -.00000048  00000+0 -17362-3 0  9993
2 51635  87.8750  86.4694 0001565  90.3162 269.8145 13.10377263176352
ONEWEB-0442             
1 51636U 22012Q   25281.77995932 -.00000040  00000+0 -13505-3 0  9999
2 51636  87.9087  55.8827 0002021  80.2151 279.9209 13.17650937180569
ONEWEB-0443             
1 51637U 22012R   25281.41967617 -.00000047  00000+0 -15332-3 0  9997
2 51637  87.9082  55.9611 0001510  87.2034 272.9270 13.17646962180560
ONEWEB-0444             
1 51638U 22012S   25281.49799438 -.00001435  00000+0 -41468-2 0  9990
2 51638  87.8742  86.4554 0001620  90.9120 269.2193 13.10378549176370
ONEWEB-0445             
1 51639U 22012T   25281.51960818  .00000484  00000+0  13505-2 0  9998
2 51639  87.8765  86.4085 0001816  89.5459 270.5876 13.10376970176381
ONEWEB-0446             
1 51640U 22012U   25281.49636595 -.00000769  00000+0 -22381-2 0  9999
2 51640  87.8746  86.4716 0001878  93.4119 266.7223 13.10373992176360
ONEWEB-0448             
1 51641U 22012V   25281.50134654 -.00000439  00000+0 -12946-2 0  9991
2 51641  87.8750  86.4708 0001550  92.1522 267.9783 13.10375289176330
ONEWEB-0449             
1 51642U 22012W   25281.50633037 -.00000139  00000+0 -43321-3 0  9990
2 51642  87.8746  86.4397 0001602  73.2283 286.9020 13.10377543176343
ONEWEB-0451             
1 51643U 22012X   25281.40450330 -.00000027  00000+0 -10187-3 0  9993
2 51643  87.9095  55.8984 0001655  92.4925 267.6396 13.17647970180504
ONEWEB-0452             
1 51644U 22012Y   25281.40282250  .00000037  00000+0  62972-4 0  9997
2 51644  87.9087  55.9588 0001495  88.5577 271.5726 13.17649354180518
ONEWEB-0456             
1 51646U 22012AA  25281.51629412  .00000337  00000+0  92806-3 0  9997
2 51646  87.8762  86.4010 0001525  96.2927 263.8374 13.10376502176385
ONEWEB-0457             
1 51647U 22012AB  25281.87483047 -.00000626  00000+0 -18287-2 0  9992
2 51647  87.8739  86.3831 0001967  81.2465 278.8885 13.10372535176432
ONEWEB-0458             
1 51648U 22012AC  25281.51463995  .00000285  00000+0  77917-3 0  9999
2 51648  87.8750  86.4267 0001506  85.2020 274.9279 13.10376727176341
ONEWEB-0461             
1 51649U 22012AD  25281.42476116  .00000033  00000+0  52195-4 0  9992
2 51649  87.9093  55.9086 0001838  95.9634 264.1707 13.17648062180736
ONEWEB-0463             
1 51650U 22012AE  25281.40620166 -.00000060  00000+0 -18739-3 0  9995
2 51650  87.9076  55.9677 0001623  94.8118 265.3199 13.17649419180513
ONEWEB-0464             
1 51651U 22012AF  25281.51131459  .00000138  00000+0  35847-3 0  9993
2 51651  87.8749  86.4665 0001472 100.9423 259.1870 13.10376898176362
ONEWEB-0468             
1 51652U 22012AG  25281.51796179  .00000361  00000+0  99920-3 0  9990
2 51652  87.8751  86.4575 0001535  95.3041 264.8262 13.10376298176349
ONEWEB-0473             
1 51653U 22012AH  25281.50300892 -.00000266  00000+0 -79917-3 0  9993
2 51653  87.8752  86.4641 0001483  89.0214 271.1083 13.10376464176346
ONEWEB-0474             
1 51654U 22012AJ  25281.49469834 -.00000610  00000+0 -17827-2 0  9998
2 51654  87.8753  86.4278 0001328  96.6568 263.4711 13.10372712176331
ONEWEB-0475             
1 51655U 22012AK  25281.41801290  .00000085  00000+0  18625-3 0  9999
2 51655  87.9087  55.9499 0000908  98.7173 261.4062 13.17649222180531
EOS-4                   
1 51656U 22013A   25282.00240303  .00002839  00000+0  16574-3 0  9999
2 51656  97.5145 287.4797 0002121 102.2993 257.8476 15.12734530201511
